[{"OBJECT_NAME":"STARLINK-3618","OBJECT_ID":"2022-025AU","EPOCH":"2026-03-09T02:26:50.604576","MEAN_MOTION":15.0882983,"ECCENTRICITY":0.0001488,"INCLINATION":53.22,"RA_OF_ASC_NODE":21.7591,"ARG_OF_PERICENTER":91.3323,"MEAN_ANOMALY":268.784,"EPHEMERIS_TYPE":0,"CLASSIFICATION_TYPE":"U","NORAD_CAT_ID":51998,"ELEMENT_SET_NO":999,"REV_AT_EPOCH":22083,"BSTAR":-8.5334773e-5,"MEAN_MOTION_DOT":-1.645e-5,"MEAN_MOTION_DDOT":0},{"OBJECT_NAME":"DMSP 5D-2 F11 DEB","OBJECT_ID":"1991-082AJ","EPOCH":"2026-03-09T06:39:32.486112","MEAN_MOTION":15.08629375,"ECCENTRICITY":0.00070318,"INCLINATION":98.5181,"RA_OF_ASC_NODE":189.4283,"ARG_OF_PERICENTER":237.8685,"MEAN_ANOMALY":152.6153,"EPHEMERIS_TYPE":0,"CLASSIFICATION_TYPE":"U","NORAD_CAT_ID":28321,"ELEMENT_SET_NO":999,"REV_AT_EPOCH":14288,"BSTAR":0.0082823802,"MEAN_MOTION_DOT":0.00131946,"MEAN_MOTION_DDOT":0}]
